[
  {
    "OBJECT_NAME": "STARLINK-35196",
    "OBJECT_ID": "25232C",
    "EPOCH": "2025-11-11T08:00:03.000384",
    "MEAN_MOTION": 15.39537112,
    "ECCENTRICITY": 0.0001661,
    "INCLINATION": 53.1597,
    "RA_OF_ASC_NODE": 295.4528,
    "ARG_OF_PERICENTER": 91.6385,
    "MEAN_ANOMALY": 119.0914,
    "EPHEMERIS_TYPE": 0,
    "CLASSIFICATION_TYPE": "U",
    "NORAD_CAT_ID": 66007,
    "ELEMENT_SET_NO": 999,
    "REV_AT_EPOCH": 449,
    "BSTAR": 0.003027,
    "MEAN_MOTION_DOT": 0.00122303,
    "MEAN_MOTION_DDOT": 0.0,
    "TLE_LINE1": "1 66007U 25232C   25315.33336806  .00122303  00000+0  30270-2 0  9995",
    "TLE_LINE2": "2 66007  53.1597 295.4528 0001661  91.6385 119.0914 15.39537112  4491",
    "COMMENT": "Grouped by shell and plane from TLE"
  },
  {
    "OBJECT_NAME": "STARLINK-35236",
    "OBJECT_ID": "25232D",
    "EPOCH": "2025-11-11T05:14:51.158688",
    "MEAN_MOTION": 15.49351397,
    "ECCENTRICITY": 0.0001225,
    "INCLINATION": 53.1597,
    "RA_OF_ASC_NODE": 295.862,
    "ARG_OF_PERICENTER": 69.6001,
    "MEAN_ANOMALY": 290.514,
    "EPHEMERIS_TYPE": 0,
    "CLASSIFICATION_TYPE": "U",
    "NORAD_CAT_ID": 66008,
    "ELEMENT_SET_NO": 999,
    "REV_AT_EPOCH": 525,
    "BSTAR": 0.0018853000000000001,
    "MEAN_MOTION_DOT": 0.00105994,
    "MEAN_MOTION_DDOT": 0.0,
    "TLE_LINE1": "1 66008U 25232D   25315.21864767  .00105994  00000+0  18853-2 0  9995",
    "TLE_LINE2": "2 66008  53.1597 295.8620 0001225  69.6001 290.5140 15.49351397  5256",
    "COMMENT": "Grouped by shell and plane from TLE"
  },
  {
    "OBJECT_NAME": "STARLINK-35276",
    "OBJECT_ID": "25232E",
    "EPOCH": "2025-11-11T08:00:03.000384",
    "MEAN_MOTION": 15.39544827,
    "ECCENTRICITY": 0.0001226,
    "INCLINATION": 53.1588,
    "RA_OF_ASC_NODE": 295.556,
    "ARG_OF_PERICENTER": 78.9636,
    "MEAN_ANOMALY": 80.2879,
    "EPHEMERIS_TYPE": 0,
    "CLASSIFICATION_TYPE": "U",
    "NORAD_CAT_ID": 66009,
    "ELEMENT_SET_NO": 999,
    "REV_AT_EPOCH": 448,
    "BSTAR": 0.0019787,
    "MEAN_MOTION_DOT": 0.00079379,
    "MEAN_MOTION_DDOT": 0.0,
    "TLE_LINE1": "1 66009U 25232E   25315.33336806  .00079379  00000+0  19787-2 0  9991",
    "TLE_LINE2": "2 66009  53.1588 295.5560 0001226  78.9636  80.2879 15.39544827  4483",
    "COMMENT": "Grouped by shell and plane from TLE"
  },
  {
    "OBJECT_NAME": "STARLINK-35297",
    "OBJECT_ID": "25232F",
    "EPOCH": "2025-11-11T05:13:51.745728",
    "MEAN_MOTION": 15.49344795,
    "ECCENTRICITY": 0.0001202,
    "INCLINATION": 53.1599,
    "RA_OF_ASC_NODE": 295.8577,
    "ARG_OF_PERICENTER": 90.1643,
    "MEAN_ANOMALY": 269.9504,
    "EPHEMERIS_TYPE": 0,
    "CLASSIFICATION_TYPE": "U",
    "NORAD_CAT_ID": 66010,
    "ELEMENT_SET_NO": 999,
    "REV_AT_EPOCH": 525,
    "BSTAR": 0.0017355,
    "MEAN_MOTION_DOT": 0.00097409,
    "MEAN_MOTION_DDOT": 0.0,
    "TLE_LINE1": "1 66010U 25232F   25315.21796002  .00097409  00000+0  17355-2 0  9991",
    "TLE_LINE2": "2 66010  53.1599 295.8577 0001202  90.1643 269.9504 15.49344795  5256",
    "COMMENT": "Grouped by shell and plane from TLE"
  },
  {
    "OBJECT_NAME": "STARLINK-35256",
    "OBJECT_ID": "25232G",
    "EPOCH": "2025-11-11T08:00:03.000384",
    "MEAN_MOTION": 15.39541661,
    "ECCENTRICITY": 0.0001143,
    "INCLINATION": 53.16,
    "RA_OF_ASC_NODE": 295.3995,
    "ARG_OF_PERICENTER": 89.0738,
    "MEAN_ANOMALY": 147.3855,
    "EPHEMERIS_TYPE": 0,
    "CLASSIFICATION_TYPE": "U",
    "NORAD_CAT_ID": 66011,
    "ELEMENT_SET_NO": 999,
    "REV_AT_EPOCH": 449,
    "BSTAR": 0.0027821,
    "MEAN_MOTION_DOT": 0.00112246,
    "MEAN_MOTION_DDOT": 0.0,
    "TLE_LINE1": "1 66011U 25232G   25315.33336806  .00112246  00000+0  27821-2 0  9993",
    "TLE_LINE2": "2 66011  53.1600 295.3995 0001143  89.0738 147.3855 15.39541661  4498",
    "COMMENT": "Grouped by shell and plane from TLE"
  },
  {
    "OBJECT_NAME": "STARLINK-35293",
    "OBJECT_ID": "25232H",
    "EPOCH": "2025-11-11T08:00:03.000384",
    "MEAN_MOTION": 15.41561092,
    "ECCENTRICITY": 0.0001685,
    "INCLINATION": 53.16,
    "RA_OF_ASC_NODE": 295.3521,
    "ARG_OF_PERICENTER": 94.5705,
    "MEAN_ANOMALY": 166.3628,
    "EPHEMERIS_TYPE": 0,
    "CLASSIFICATION_TYPE": "U",
    "NORAD_CAT_ID": 66012,
    "ELEMENT_SET_NO": 999,
    "REV_AT_EPOCH": 449,
    "BSTAR": 0.0,
    "MEAN_MOTION_DOT": -0.02370644,
    "MEAN_MOTION_DDOT": 0.0,
    "TLE_LINE1": "1 66012U 25232H   25315.33336806 -.02370644  00000+0 -62419-1 0  9997",
    "TLE_LINE2": "2 66012  53.1600 295.3521 0001685  94.5705 166.3628 15.41561092  4492",
    "COMMENT": "Grouped by shell and plane from TLE"
  },
  {
    "OBJECT_NAME": "STARLINK-35307",
    "OBJECT_ID": "25232J",
    "EPOCH": "2025-11-11T05:51:57.008448",
    "MEAN_MOTION": 15.39646713,
    "ECCENTRICITY": 0.0001104,
    "INCLINATION": 53.1601,
    "RA_OF_ASC_NODE": 296.0235,
    "ARG_OF_PERICENTER": 86.8603,
    "MEAN_ANOMALY": 273.2529,
    "EPHEMERIS_TYPE": 0,
    "CLASSIFICATION_TYPE": "U",
    "NORAD_CAT_ID": 66013,
    "ELEMENT_SET_NO": 999,
    "REV_AT_EPOCH": 527,
    "BSTAR": 0.0019255000000000001,
    "MEAN_MOTION_DOT": 0.00077474,
    "MEAN_MOTION_DDOT": 0.0,
    "TLE_LINE1": "1 66013U 25232J   25315.24440982  .00077474  00000+0  19255-2 0  9991",
    "TLE_LINE2": "2 66013  53.1601 296.0235 0001104  86.8603 273.2529 15.39646713  5277",
    "COMMENT": "Grouped by shell and plane from TLE"
  },
  {
    "OBJECT_NAME": "STARLINK-35395",
    "OBJECT_ID": "25232K",
    "EPOCH": "2025-11-11T08:00:03.000384",
    "MEAN_MOTION": 15.39544396,
    "ECCENTRICITY": 0.0001088,
    "INCLINATION": 53.1592,
    "RA_OF_ASC_NODE": 295.5037,
    "ARG_OF_PERICENTER": 77.9908,
    "MEAN_ANOMALY": 107.0025,
    "EPHEMERIS_TYPE": 0,
    "CLASSIFICATION_TYPE": "U",
    "NORAD_CAT_ID": 66014,
    "ELEMENT_SET_NO": 999,
    "REV_AT_EPOCH": 448,
    "BSTAR": 0.0020309,
    "MEAN_MOTION_DOT": 0.00081506,
    "MEAN_MOTION_DDOT": 0.0,
    "TLE_LINE1": "1 66014U 25232K   25315.33336806  .00081506  00000+0  20309-2 0  9994",
    "TLE_LINE2": "2 66014  53.1592 295.5037 0001088  77.9908 107.0025 15.39544396  4482",
    "COMMENT": "Grouped by shell and plane from TLE"
  },
  {
    "OBJECT_NAME": "STARLINK-34622",
    "OBJECT_ID": "25232L",
    "EPOCH": "2025-11-11T05:10:24.072096",
    "MEAN_MOTION": 15.49353134,
    "ECCENTRICITY": 0.0001831,
    "INCLINATION": 53.1602,
    "RA_OF_ASC_NODE": 295.8391,
    "ARG_OF_PERICENTER": 103.2948,
    "MEAN_ANOMALY": 256.8266,
    "EPHEMERIS_TYPE": 0,
    "CLASSIFICATION_TYPE": "U",
    "NORAD_CAT_ID": 66015,
    "ELEMENT_SET_NO": 999,
    "REV_AT_EPOCH": 526,
    "BSTAR": 0.0023636,
    "MEAN_MOTION_DOT": 0.00133484,
    "MEAN_MOTION_DDOT": 0.0,
    "TLE_LINE1": "1 66015U 25232L   25315.21555639  .00133484  00000+0  23636-2 0  9998",
    "TLE_LINE2": "2 66015  53.1602 295.8391 0001831 103.2948 256.8266 15.49353134  5260",
    "COMMENT": "Grouped by shell and plane from TLE"
  },
  {
    "OBJECT_NAME": "STARLINK-35243",
    "OBJECT_ID": "25232M",
    "EPOCH": "2025-11-11T05:10:53.745312",
    "MEAN_MOTION": 15.49342312,
    "ECCENTRICITY": 0.0001652,
    "INCLINATION": 53.1601,
    "RA_OF_ASC_NODE": 295.843,
    "ARG_OF_PERICENTER": 94.8094,
    "MEAN_ANOMALY": 265.3104,
    "EPHEMERIS_TYPE": 0,
    "CLASSIFICATION_TYPE": "U",
    "NORAD_CAT_ID": 66016,
    "ELEMENT_SET_NO": 999,
    "REV_AT_EPOCH": 527,
    "BSTAR": 0.0016844000000000002,
    "MEAN_MOTION_DOT": 0.00094481,
    "MEAN_MOTION_DDOT": 0.0,
    "TLE_LINE1": "1 66016U 25232M   25315.21589983  .00094481  00000+0  16844-2 0  9994",
    "TLE_LINE2": "2 66016  53.1601 295.8430 0001652  94.8094 265.3104 15.49342312  5275",
    "COMMENT": "Grouped by shell and plane from TLE"
  },
  {
    "OBJECT_NAME": "STARLINK-35398",
    "OBJECT_ID": "25232N",
    "EPOCH": "2025-11-11T05:52:26.138208",
    "MEAN_MOTION": 15.39636013,
    "ECCENTRICITY": 0.0001263,
    "INCLINATION": 53.1602,
    "RA_OF_ASC_NODE": 296.0245,
    "ARG_OF_PERICENTER": 85.5557,
    "MEAN_ANOMALY": 274.5592,
    "EPHEMERIS_TYPE": 0,
    "CLASSIFICATION_TYPE": "U",
    "NORAD_CAT_ID": 66017,
    "ELEMENT_SET_NO": 999,
    "REV_AT_EPOCH": 527,
    "BSTAR": 0.0014921000000000001,
    "MEAN_MOTION_DOT": 0.00059786,
    "MEAN_MOTION_DDOT": 0.0,
    "TLE_LINE1": "1 66017U 25232N   25315.24474697  .00059786  00000+0  14921-2 0  9996",
    "TLE_LINE2": "2 66017  53.1602 296.0245 0001263  85.5557 274.5592 15.39636013  5279",
    "COMMENT": "Grouped by shell and plane from TLE"
  },
  {
    "OBJECT_NAME": "STARLINK-35376",
    "OBJECT_ID": "25232P",
    "EPOCH": "2025-11-10T09:02:19.148064",
    "MEAN_MOTION": 15.49349382,
    "ECCENTRICITY": 0.0001662,
    "INCLINATION": 53.1598,
    "RA_OF_ASC_NODE": 299.848,
    "ARG_OF_PERICENTER": 75.8513,
    "MEAN_ANOMALY": 284.2681,
    "EPHEMERIS_TYPE": 0,
    "CLASSIFICATION_TYPE": "U",
    "NORAD_CAT_ID": 66018,
    "ELEMENT_SET_NO": 999,
    "REV_AT_EPOCH": 514,
    "BSTAR": 0.0018032999999999999,
    "MEAN_MOTION_DOT": 0.00101297,
    "MEAN_MOTION_DDOT": 0.0,
    "TLE_LINE1": "1 66018U 25232P   25314.37661051  .00101297  00000+0  18033-2 0  9995",
    "TLE_LINE2": "2 66018  53.1598 299.8480 0001662  75.8513 284.2681 15.49349382  5147",
    "COMMENT": "Grouped by shell and plane from TLE"
  },
  {
    "OBJECT_NAME": "STARLINK-35382",
    "OBJECT_ID": "25232Q",
    "EPOCH": "2025-11-11T05:11:23.407296",
    "MEAN_MOTION": 15.49349636,
    "ECCENTRICITY": 0.0001353,
    "INCLINATION": 53.1597,
    "RA_OF_ASC_NODE": 295.8445,
    "ARG_OF_PERICENTER": 86.1283,
    "MEAN_ANOMALY": 273.9881,
    "EPHEMERIS_TYPE": 0,
    "CLASSIFICATION_TYPE": "U",
    "NORAD_CAT_ID": 66019,
    "ELEMENT_SET_NO": 999,
    "REV_AT_EPOCH": 527,
    "BSTAR": 0.0017000000000000001,
    "MEAN_MOTION_DOT": 0.00095396,
    "MEAN_MOTION_DDOT": 0.0,
    "TLE_LINE1": "1 66019U 25232Q   25315.21624314  .00095396  00000+0  17000-2 0  9996",
    "TLE_LINE2": "2 66019  53.1597 295.8445 0001353  86.1283 273.9881 15.49349636  5273",
    "COMMENT": "Grouped by shell and plane from TLE"
  }
]